MANDRAKE 2 ABLE         
1 48907U 21059AE  26176.02413699  .00022598  00000+0  33487-3 0  9994
2 48907  97.7034   6.4076 0003844 332.8821  27.2231 15.55265097278345
MANDRAKE 2 BAKER        
1 48908U 21059AF  26176.06092681  .00030808  00000+0  38292-3 0  9995
2 48908  97.7001   9.3741 0002302 329.5666  30.5456 15.59935566278524
PACE-1                  
1 48909U 21059AG  26176.06850470  .00113106  00000+0  57401-3 0  9990
2 48909  97.6749  15.1069 0001875 229.2066 130.9039 15.81176134279048
YAM-3                   
1 48915U 21059AN  26176.07952282  .00013526  00000+0  25418-3 0  9990
2 48915  97.6992   3.5518 0004147 341.9280  18.1822 15.48714147278210
FARADAY_PHOENIX         
1 48924U 21059AX  26176.07204514  .00183495  00000+0  94867-3 0  9995
2 48924  97.6789  14.9904 0003790 262.9585  97.1251 15.80575188278907
DEMO8 (TENZING)         
1 48951U 21059CA  26176.09145439  .00023413  00000+0  34670-3 0  9996
2 48951  97.7023  10.1143 0005581 322.9333  37.1534 15.55268699278535
NAPA-2                  
1 48963U 21059CN  26176.18004984  .00666631  23091-3  82443-3 0  9993
2 48963  97.6548  16.5742 0004319 233.5046 126.5838 16.07883638279096
FENGYUN 3E              
1 49008U 21062A   26176.23492581 -.00000326  00000+0 -13304-3 0  9994
2 49008  98.7497 179.5532 0002815  72.7088 287.4396 14.19903612257725
ISS (NAUKA)             
1 49044U 21066A   26176.18758125  .00009470  00000+0  17725-3 0  9999
2 49044  51.6326 260.4913 0004409 228.8642 131.1966 15.49415960607611
STARLINK-3100           
1 49144U 21082Q   26175.98471517  .00000022  00000+0  96322-5 0  9998
2 49144  70.0004  23.9183 0002950 268.7198  91.3624 14.98328747262051
CUTE                    
1 49263U 21088D   26175.21813702  .00266732  29870-4  67918-3 0  9998
2 49263  97.4172 275.2045 0007667 220.2965 139.7743 15.95360523263670
2021-091B               
1 49316U 21091B   26176.16490176  .00001916  00000+0  95757-4 0  9995
2 49316  97.4479   3.6178 0013969  20.1883 339.9901 15.18586649260195
SDGSAT 1                
1 49387U 21100A   26176.20058215  .00002361  00000+0  11542-3 0  9997
2 49387  97.2633 222.8449 0007923 237.9715 122.0750 15.19143611257136
TEIKYOSAT-4 (OORURI)    
1 49396U 21102B   26176.07524204  .00001727  00000+0  11135-3 0  9993
2 49396  97.3665 205.2519 0010346 265.2165  94.7883 15.09533914253913
Z-SAT                   
1 49399U 21102E   26176.17259677  .00005323  00000+0  26186-3 0  9994
2 49399  97.3327 211.2533 0015507 214.4878 145.5352 15.18317057254651
HIBARI                  
1 49400U 21102F   26176.10631546  .00012788  00000+0  41680-3 0  9998
2 49400  97.3238 221.9192 0012272 164.3933 195.7690 15.31876198255402
KOSEN-1                 
1 49402U 21102H   26176.07141854  .00008206  00000+0  31212-3 0  9994
2 49402  97.3188 218.0754 0014057 172.5195 187.6256 15.26933285255226
GLOBAL-14               
1 49469U 21106A   26174.91288480  .00022613  00000+0  38358-3 0  9995
2 49469  42.0036 251.1004 0014963  69.0773 291.1672 15.50885236259172
GAOFEN-3 02             
1 49495U 21109A   26176.16612498 -.00000126  00000+0 -25088-4 0  9990
2 49495  98.4092 184.1497 0002390 356.0118   4.1052 14.42217361241467
GLOBAL-12               
1 49772U 21115BA  26176.11369591  .00037093  00000+0  56729-3 0  9999
2 49772  53.1958   6.4159 0002828  75.2699 284.8626 15.54049735257132
GLOBAL-13               
1 49773U 21115BB  26176.19967306  .00023036  00000+0  46674-3 0  9996
2 49773  53.1983  16.4909 0003139 128.7115 231.4175 15.46327621257005
GLOBAL-17               
1 49949U 21120A   26175.93748188  .00032469  00000+0  51418-3 0  9995
2 49949  41.9962   3.1011 0015707 305.8479  54.0907 15.52632104256108
GLOBAL-16               
1 49950U 21120B   26175.96141076  .00028534  00000+0  48895-3 0  9996
2 49950  41.9964   6.8354 0013789 297.1816  62.7621 15.50513884256052
XW-3 (CAS-9)            
1 50466U 21131B   26176.17663925  .00000408  00000+0  13963-3 0  9996
2 50466  98.4980 268.5231 0005371  78.1265 282.0526 14.41363656236266
ION SCV-004             
1 50993U 22002K   26176.14580234  .00005706  00000+0  19583-3 0  9997
2 50993  97.2834 233.6549 0006298 337.8058  22.2910 15.30521852246518
ETV-A1                  
1 51060U 22002CE  26176.19691541  .00012705  00000+0  31170-3 0  9995
2 51060  97.2880 242.4793 0003707 329.5356  30.5675 15.40831204247073
BRO-5                   
1 51061U 22002CF  26176.20419330  .00037076  00000+0  71429-3 0  9991
2 51061  97.3000 249.9453 0003720 288.3713  71.7133 15.47774516247499
LUDI TANCE 1-01A (L-SA*)
1 51284U 22007A   26176.18114469  .00000566  00000+0  66928-4 0  9998
2 51284  97.8098 183.4874 0001588  91.0336 269.1062 14.88415539239662
LUDI TANCE 1-01B (L-SA*)
1 51822U 22018A   26176.21473341  .00000577  00000+0  68095-4 0  9998
2 51822  97.8104 183.5175 0001612  92.1121 268.0280 14.88407592234907
