OBJECT_NAME,OBJECT_ID,EPOCH,MEAN_MOTION,ECCENTRICITY,INCLINATION,RA_OF_ASC_NODE,ARG_OF_PERICENTER,MEAN_ANOMALY,EPHEMERIS_TYPE,CLASSIFICATION_TYPE,NORAD_CAT_ID,ELEMENT_SET_NO,REV_AT_EPOCH,BSTAR,MEAN_MOTION_DOT,MEAN_MOTION_DDOT
MANDRAKE 2 ABLE,2021-059AE,2026-06-25T00:34:45.435936,15.55265097,.0003844,97.7034,6.4076,332.8821,27.2231,0,U,48907,999,27834,.33487E-3,.22598E-3,0
MANDRAKE 2 BAKER,2021-059AF,2026-06-25T01:27:44.076384,15.59935566,.0002302,97.7001,9.3741,329.5666,30.5456,0,U,48908,999,27852,.38292E-3,.30808E-3,0
PACE-1,2021-059AG,2026-06-25T01:38:38.806080,15.81176134,.0001875,97.6749,15.1069,229.2066,130.9039,0,U,48909,999,27904,.57401E-3,.113106E-2,0
YAM-3,2021-059AN,2026-06-25T01:54:30.771648,15.48714147,.0004147,97.6992,3.5518,341.9280,18.1822,0,U,48915,999,27821,.25418E-3,.13526E-3,0
FARADAY_PHOENIX,2021-059AX,2026-06-25T01:43:44.700096,15.80575188,.000379,97.6789,14.9904,262.9585,97.1251,0,U,48924,999,27890,.94867E-3,.183495E-2,0
DEMO8 (TENZING),2021-059CA,2026-06-25T02:11:41.659296,15.55268699,.0005581,97.7023,10.1143,322.9333,37.1534,0,U,48951,999,27853,.3467E-3,.23413E-3,0
NAPA-2,2021-059CN,2026-06-25T04:19:16.306176,16.07883638,.0004319,97.6548,16.5742,233.5046,126.5838,0,U,48963,999,27909,.82443E-3,.666631E-2,.23091E-3
FENGYUN 3E,2021-062A,2026-06-25T05:38:17.589984,14.19903612,.0002815,98.7497,179.5532,72.7088,287.4396,0,U,49008,999,25772,-.13304E-3,-.326E-5,0
ISS (NAUKA),2021-066A,2026-06-25T04:30:07.020000,15.49415960,.0004409,51.6326,260.4913,228.8642,131.1966,0,U,49044,999,60761,.17725E-3,.947E-4,0
STARLINK-3100,2021-082Q,2026-06-24T23:37:59.390688,14.98328747,.000295,70.0004,23.9183,268.7198,91.3624,0,U,49144,999,26205,.96322E-5,.22E-6,0
CUTE,2021-088D,2026-06-24T05:14:07.038528,15.95360523,.00076675,97.4172,275.2045,220.2965,139.7743,0,U,49263,999,26367,.67917977E-3,.266732E-2,.29870169E-4
2021-091B,2021-091B,2026-06-25T03:57:27.512064,15.18586649,.0013969,97.4479,3.6178,20.1883,339.9901,0,U,49316,999,26019,.95757E-4,.1916E-4,0
SDGSAT 1,2021-100A,2026-06-25T04:48:50.297760,15.19143611,.0007923,97.2633,222.8449,237.9715,122.0750,0,U,49387,999,25713,.11542E-3,.2361E-4,0
TEIKYOSAT-4 (OORURI),2021-102B,2026-06-25T01:48:20.912256,15.09533914,.0010346,97.3665,205.2519,265.2165,94.7883,0,U,49396,999,25391,.11135E-3,.1727E-4,0
Z-SAT,2021-102E,2026-06-25T04:08:32.360928,15.18317057,.0015507,97.3327,211.2533,214.4878,145.5352,0,U,49399,999,25465,.26186E-3,.5323E-4,0
HIBARI,2021-102F,2026-06-25T02:33:05.655744,15.31876198,.0012272,97.3238,221.9192,164.3933,195.7690,0,U,49400,999,25540,.4168E-3,.12788E-3,0
KOSEN-1,2021-102H,2026-06-25T01:42:50.561856,15.26933285,.0014057,97.3188,218.0754,172.5195,187.6256,0,U,49402,999,25522,.31212E-3,.8206E-4,0
GLOBAL-14,2021-106A,2026-06-23T21:54:33.246720,15.50885236,.00149636,42.0036,251.1004,69.0773,291.1672,0,U,49469,999,25917,.38357779E-3,.22613E-3,0
GAOFEN-3 02,2021-109A,2026-06-25T03:59:13.198272,14.42217361,.000239,98.4092,184.1497,356.0118,4.1052,0,U,49495,999,24146,-.25088E-4,-.126E-5,0
GLOBAL-12,2021-115BA,2026-06-25T02:43:43.326624,15.54049735,.0002828,53.1958,6.4159,75.2699,284.8626,0,U,49772,999,25713,.56729E-3,.37093E-3,0
GLOBAL-13,2021-115BB,2026-06-25T04:47:31.752384,15.46327621,.0003139,53.1983,16.4909,128.7115,231.4175,0,U,49773,999,25700,.46674E-3,.23036E-3,0
GLOBAL-17,2021-120A,2026-06-24T22:29:58.434432,15.52632104,.0015707,41.9962,3.1011,305.8479,54.0907,0,U,49949,999,25610,.51418E-3,.32469E-3,0
GLOBAL-16,2021-120B,2026-06-24T23:04:25.889664,15.50513884,.0013789,41.9964,6.8354,297.1816,62.7621,0,U,49950,999,25605,.48895E-3,.28534E-3,0
XW-3 (CAS-9),2021-131B,2026-06-25T04:14:21.631200,14.41363656,.0005371,98.4980,268.5231,78.1265,282.0526,0,U,50466,999,23626,.13963E-3,.408E-5,0
ION SCV-004,2022-002K,2026-06-25T03:29:57.322176,15.30521852,.0006298,97.2834,233.6549,337.8058,22.2910,0,U,50993,999,24651,.19583E-3,.5706E-4,0
ETV-A1,2022-002CE,2026-06-25T04:43:33.491424,15.40831204,.0003707,97.2880,242.4793,329.5356,30.5675,0,U,51060,999,24707,.3117E-3,.12705E-3,0
BRO-5,2022-002CF,2026-06-25T04:54:02.301120,15.47774516,.000372,97.3000,249.9453,288.3713,71.7133,0,U,51061,999,24749,.71429E-3,.37076E-3,0
LUDI TANCE 1-01A (L-SAR 01A),2022-007A,2026-06-25T04:20:50.901216,14.88415539,.0001588,97.8098,183.4874,91.0336,269.1062,0,U,51284,999,23966,.66928E-4,.566E-5,0
LUDI TANCE 1-01B (L-SAR 01B),2022-018A,2026-06-25T05:09:12.966624,14.88407592,.0001612,97.8104,183.5175,92.1121,268.0280,0,U,51822,999,23490,.68095E-4,.577E-5,0
